NORAD_CAT_ID,OBJECT_NAME,OBJECT_TYPE,EPOCH,MEAN_MOTION,ECCENTRICITY,INCLINATION,RA_OF_ASC_NODE,ARG_OF_PERICENTER,MEAN_ANOMALY,BSTAR,MEAN_MOTION_DOT,MEAN_MOTION_DDOT,TLE_LINE0,TLE_LINE1,TLE_LINE2,SEMIMAJOR_AXIS,PERIOD,APOGEE,PERIGEE,DECAYED
54005.0,STARLINK-5135,PAYLOAD,2022-10-21 12:00:00,15.73185255,0.0002501,53.2182,14.6884,21.0318,256.7196,0.00032419,0.00045097,0.0,0 STARLINK-5135,1 54005U 22125AT  22294.50001157  .00045097  00000-0  32419-3 0  9991,2 54005  53.2182  14.6884 0002501  21.0318 256.7196 15.73185255  2821,6727.937,91.534,351.485,348.12,0.0
54005.0,STARLINK-5135,PAYLOAD,2022-10-21 14:00:01,15.73182553,0.0002551,53.2182,14.2758,20.8797,9.1028,0.00052924,0.00074265,0.0,0 STARLINK-5135,1 54005U 22125AT  22294.58334491  .00074265  00000-0  52924-3 0  9991,2 54005  53.2182  14.2758 0002551  20.8797   9.1028 15.73182553  1304,6727.945,91.534,351.526,348.094,0.0
54005.0,STARLINK-5135,PAYLOAD,2022-10-21 22:00:00,15.73259314,0.0002528,53.2188,12.6265,21.5773,97.3338,-0.00058916,-0.00082722,0.0,0 STARLINK-5135,1 54005U 22125AT  22294.91667824 -.00082722  00000-0 -58916-3 0  9993,2 54005  53.2188  12.6265 0002528  21.5773  97.3338 15.73259314  1304,6727.726,91.53,351.292,347.89,0.0
54005.0,STARLINK-5135,PAYLOAD,2022-10-22 06:00:00,15.73204512,0.000249,53.219,10.9765,24.7828,183.0905,-9.8887e-05,-0.00014481,0.0,0 STARLINK-5135,1 54005U 22125AT  22295.25001157 -.00014481  00000-0 -98887-4 0  9991,2 54005  53.2190  10.9765 0002490  24.7828 183.0905 15.73204512  2941,6727.882,91.533,351.423,348.07199999999995,0.0
54005.0,STARLINK-5135,PAYLOAD,2022-10-22 14:00:01,15.73167366,0.0002781,53.2187,9.3291,21.7622,275.0241,0.00057289,0.00080451,0.0,0 STARLINK-5135,1 54005U 22125AT  22295.58334491  .00080451  00000-0  57289-3 0  9995,2 54005  53.2187   9.3291 0002781  21.7622 275.0241 15.73167366  1304,6727.988,91.535,351.724,347.982,0.0
54005.0,STARLINK-5135,PAYLOAD,2022-10-22 20:00:01,15.73264879,0.0002653,53.2181,8.0911,19.7333,253.7345,-0.00043922,-0.00061994,0.0,0 STARLINK-5135,1 54005U 22125AT  22295.83334491 -.00061994  00000-0 -43922-3 0  9995,2 54005  53.2181   8.0911 0002653  19.7333 253.7345 15.73264879  3034,6727.71,91.529,351.36,347.79,0.0
54005.0,STARLINK-5135,PAYLOAD,2022-10-22 22:00:00,15.73257901,0.000256,53.2183,7.6783,19.8324,5.8826,-0.00040945,-0.00057844,0.0,0 STARLINK-5135,1 54005U 22125AT  22295.91667824 -.00057844  00000-0 -40945-3 0  9994,2 54005  53.2183   7.6783 0002560  19.8324   5.8826 15.73257901  1302,6727.73,91.53,351.31699999999995,347.87300000000016,0.0
54005.0,STARLINK-5135,PAYLOAD,2022-10-23 06:00:00,15.73237813,0.000246,53.2185,6.0284,20.0066,94.6923,0.00056445,0.00079485,0.0,0 STARLINK-5135,1 54005U 22125AT  22296.25001157  .00079485  00000-0  56445-3 0  9998,2 54005  53.2185   6.0284 0002460  20.0066  94.6923 15.73237813  3091,6727.7869999999975,91.531,351.307,347.997,0.0
54005.0,STARLINK-5135,PAYLOAD,2022-10-23 12:00:00,15.73287734,0.0002711,53.2184,4.793,17.5262,73.9076,-0.00016194,-0.00023377,0.0,0 STARLINK-5135,1 54005U 22125AT  22296.50001157 -.00023377  00000-0 -16194-3 0  9994,2 54005  53.2184   4.7930 0002711  17.5262  73.9076 15.73287734  3132,6727.645,91.528,351.334,347.686,0.0
54005.0,STARLINK-5135,PAYLOAD,2022-10-23 14:00:01,15.73282389,0.000275,53.2187,4.381,16.4505,187.241,-0.00011096,-0.00016224,0.0,0 STARLINK-5135,1 54005U 22125AT  22296.58334491 -.00016224  00000-0 -11096-3 0  9991,2 54005  53.2187   4.3810 0002750  16.4505 187.2410 15.73282389  1308,6727.66,91.528,351.375,347.675,0.0
54005.0,STARLINK-5135,PAYLOAD,2022-10-23 22:00:00,15.73293913,0.0002601,53.2187,2.7298,15.5612,277.1446,-0.001201,-0.00166586,0.0,0 STARLINK-5135,1 54005U 22125AT  22296.91667824 -.00166586  00000-0 -12010-2 0  9990,2 54005  53.2187   2.7298 0002601  15.5612 277.1446 15.73293913  1307,6727.627,91.528,351.242,347.74300000000005,0.0
54005.0,STARLINK-5135,PAYLOAD,2022-10-24 06:00:00,15.73193306,0.0002624,53.2188,1.08,18.1013,3.5781,-0.0011817,-0.00163279,0.0,0 STARLINK-5135,1 54005U 22125AT  22297.25001157 -.00163279  00000-0 -11817-2 0  9999,2 54005  53.2188   1.0800 0002624  18.1013   3.5781 15.73193306  3252,6727.9140000000025,91.534,351.545,348.014,0.0
54005.0,STARLINK-5135,PAYLOAD,2022-10-24 12:00:00,15.73026691,0.0002893,53.2185,359.8446,19.345,338.9953,0.00091697,0.00129118,0.0,0 STARLINK-5135,1 54005U 22125AT  22297.50001157  .00129118  00000-0  91697-3 0  9994,2 54005  53.2185 359.8446 0002893  19.3450 338.9953 15.73026691  3297,6728.389,91.543,352.201,348.30800000000005,0.0
54005.0,STARLINK-5135,PAYLOAD,2022-10-24 14:00:01,15.73012868,0.0002938,53.2185,359.4327,18.3541,92.1813,0.0014777999999999,0.00210382,0.0,0 STARLINK-5135,1 54005U 22125AT  22297.58334491  .00210382  00000-0  14778-2 0  9990,2 54005  53.2185 359.4327 0002938  18.3541  92.1813 15.73012868  1306,6728.429,91.544,352.271,348.31699999999995,0.0
54005.0,STARLINK-5135,PAYLOAD,2022-10-24 22:00:00,15.73155699,0.0002748,53.2181,357.7818,16.7396,182.5774,0.00028171,0.00039029,0.0,0 STARLINK-5135,1 54005U 22125AT  22297.91667824  .00039029  00000-0  28171-3 0  9996,2 54005  53.2181 357.7818 0002748  16.7396 182.5774 15.73155699  1307,6728.021,91.536,351.735,348.038,0.0
54005.0,STARLINK-5135,PAYLOAD,2022-10-25 04:00:00,15.73175714,0.0002625,53.218,356.5444,19.4294,156.5499,0.0004724999999999,0.00066153,0.0,0 STARLINK-5135,1 54005U 22125AT  22298.16667824  .00066153  00000-0  47250-3 0  9991,2 54005  53.2180 356.5444 0002625  19.4294 156.5499 15.73175714  3407,6727.964,91.535,351.596,348.06300000000016,0.0
54005.0,STARLINK-5135,PAYLOAD,2022-10-25 14:00:01,15.73224021,0.0002941,53.2181,354.4849,15.5219,1.6269,-0.00013984,-0.00020226,0.0,0 STARLINK-5135,1 54005U 22125AT  22298.58334491 -.00020226  00000-0 -13984-3 0  9998,2 54005  53.2181 354.4849 0002941  15.5219   1.6269 15.73224021  1307,6727.8269999999975,91.532,351.67,347.713,0.0
54005.0,STARLINK-5135,PAYLOAD,2022-10-25 20:00:01,15.73204355,0.0002865,53.2182,353.2464,15.2865,338.5775,9.2422e-05,0.00012372,0.0,0 STARLINK-5135,1 54005U 22125AT  22298.83334491  .00012372  00000-0  92422-4 0  9992,2 54005  53.2182 353.2464 0002865  15.2865 338.5775 15.73204355  3503,6727.8830000000025,91.533,351.675,347.82,0.0
54005.0,STARLINK-5135,PAYLOAD,2022-10-25 22:00:01,15.73203041,0.0002808,53.2183,352.8334,15.4999,90.6647,0.0001533,0.00020952,0.0,0 STARLINK-5135,1 54005U 22125AT  22298.91668981  .00020952  00000-0  15330-3 0  9990,2 54005  53.2183 352.8334 0002808  15.4999  90.6647 15.73203041  1303,6727.887,91.533,351.641,347.862,0.0
54005.0,STARLINK-5135,PAYLOAD,2022-10-26 14:00:01,15.73181861,0.0003237,53.2179,349.5362,20.8906,263.0993,0.00065448,0.0009218999999999,0.0,0 STARLINK-5135,1 54005U 22125AT  22299.58334491  .00092190  00000-0  65448-3 0  9998,2 54005  53.2179 349.5362 0003237  20.8906 263.0993 15.73181861  1302,6727.946999999999,91.534,351.99,347.634,0.0
54005.0,STARLINK-5135,PAYLOAD,2022-10-26 22:00:00,15.73262022,0.0002901999999999,53.2177,347.8848,19.349,353.5865,-0.00058721,-0.00082469,0.0,0 STARLINK-5135,1 54005U 22125AT  22299.91667824 -.00082469  00000-0 -58721-3 0  9990,2 54005  53.2177 347.8848 0002902  19.3490 353.5865 15.73262022  1301,6727.718000000003,91.53,351.536,347.631,0.0
54005.0,STARLINK-5135,PAYLOAD,2022-10-27 06:00:00,15.73206201,0.0002874,53.2176,346.2356,17.0586,84.8591,-0.00012582,-0.00018251,0.0,0 STARLINK-5135,1 54005U 22125AT  22300.25001157 -.00018251  00000-0 -12582-3 0  9994,2 54005  53.2176 346.2356 0002874  17.0586  84.8591 15.73206201  3721,6727.877,91.533,351.676,347.809,0.0
54005.0,STARLINK-5135,PAYLOAD,2022-10-27 14:00:01,15.73173059,0.0003141,53.2175,344.5875,14.2671,176.6488,0.00080251,0.00113425,0.0,0 STARLINK-5135,1 54005U 22125AT  22300.58335648  .00113425  00000-0  80251-3 0  9990,2 54005  53.2175 344.5875 0003141  14.2671 176.6488 15.73173059  1300,6727.972,91.535,351.95,347.724,0.0
54005.0,STARLINK-5135,PAYLOAD,2022-10-27 18:00:00,15.73250208,0.0003103,53.2175,343.7618,14.6394,40.6634,-6.1386e-05,-9.25e-05,0.0,0 STARLINK-5135,1 54005U 22125AT  22300.75001157 -.00009250  00000-0 -61386-4 0  9995,2 54005  53.2175 343.7618 0003103  14.6394  40.6634 15.73250208  3802,6727.752,91.53,351.705,347.529,0.0
54005.0,STARLINK-5135,PAYLOAD,2022-10-27 22:00:00,15.73254623,0.0002948999999999,53.218,342.936,15.2236,264.5731,-0.00022347,-0.00031947,0.0,0 STARLINK-5135,1 54005U 22125AT  22300.91667824 -.00031947  00000-0 -22347-3 0  9993,2 54005  53.2180 342.9360 0002949  15.2236 264.5731 15.73254623  1305,6727.739000000001,91.53,351.588,347.62,0.0
54005.0,STARLINK-5135,PAYLOAD,2022-10-28 14:00:01,15.732072699999998,0.0003288999999999,53.2176,339.6385,15.7427,82.0682,-0.000154,-0.00022192,0.0,0 STARLINK-5135,1 54005U 22125AT  22301.58335648 -.00022192  00000-0 -15400-3 0  9997,2 54005  53.2176 339.6385 0003289  15.7427  82.0682 15.73207270  3930,6727.874,91.533,351.952,347.527,0.0
54005.0,STARLINK-5135,PAYLOAD,2022-10-28 22:00:01,15.73189763,0.0002972,53.2175,337.9869,13.244000000000002,173.4961,-1.0077e-05,-2.036e-05,0.0,0 STARLINK-5135,1 54005U 22125AT  22301.91668981 -.00002036  00000-0 -10077-4 0  9994,2 54005  53.2175 337.9869 0002972  13.2440 173.4961 15.73189763  1303,6727.924,91.534,351.789,347.79,0.0
54005.0,STARLINK-5135,PAYLOAD,2022-10-29 04:00:00,15.73224082,0.0002923,53.2177,336.7501,12.7897,150.5859,-0.00037283,-0.00052687,0.0,0 STARLINK-5135,1 54005U 22125AT  22302.16667824 -.00052687  00000-0 -37283-3 0  9991,2 54005  53.2177 336.7501 0002923  12.7897 150.5859 15.73224082  4030,6727.8269999999975,91.532,351.658,347.725,0.0
54005.0,STARLINK-5135,PAYLOAD,2022-10-29 12:00:00,15.73143078,0.0003237,53.2177,335.1025,9.5477,242.7787,0.0008512,0.0012029,0.0,0 STARLINK-5135,1 54005U 22125AT  22302.50001157  .00120290  00000-0  85120-3 0  9997,2 54005  53.2177 335.1025 0003237   9.5477 242.7787 15.73143078  1307,6728.057,91.536,352.1,347.745,0.0
